SHIYAN-24C 02           
1 58651U 23206B   26068.89175597  .00002770  00000+0  23935-3 0  9991
2 58651  97.3985  41.8071 0003465  80.6641 279.4974 14.97980163120443
STARLINK-34033          
1 64045U 25102Z   26068.56165852  .00003267  00000+0  28142-3 0  9996
2 64045  70.0010 114.7526 0003568 269.7941  90.2809 14.98332780 45861
